STARLINK-4168           
1 52845U 22062R   26068.32691774 -.00000965  00000+0 -42574-4 0  9994
2 52845  53.2178  35.8117 0001382  98.4122 261.7027 15.08837029205732
SEDNA-2                 
1 63153U 25009DQ  26068.79893845  .00008085  00000+0  49393-3 0  9990
2 63153  97.4615 144.8075 0010309  53.0260 307.1912 15.10492622 63116
