[{"OBJECT_NAME":"STARLINK-4168","OBJECT_ID":"2022-062R","EPOCH":"2026-03-09T07:50:45.692736","MEAN_MOTION":15.08837029,"ECCENTRICITY":0.00013822,"INCLINATION":53.2178,"RA_OF_ASC_NODE":35.8117,"ARG_OF_PERICENTER":98.4122,"MEAN_ANOMALY":261.7027,"EPHEMERIS_TYPE":0,"CLASSIFICATION_TYPE":"U","NORAD_CAT_ID":52845,"ELEMENT_SET_NO":999,"REV_AT_EPOCH":20573,"BSTAR":-4.2573903e-5,"MEAN_MOTION_DOT":-9.65e-6,"MEAN_MOTION_DDOT":0},{"OBJECT_NAME":"SEDNA-2","OBJECT_ID":"2025-009DQ","EPOCH":"2026-03-09T19:10:28.282944","MEAN_MOTION":15.10492622,"ECCENTRICITY":0.0010309,"INCLINATION":97.4615,"RA_OF_ASC_NODE":144.8075,"ARG_OF_PERICENTER":53.026,"MEAN_ANOMALY":307.1912,"EPHEMERIS_TYPE":0,"CLASSIFICATION_TYPE":"U","NORAD_CAT_ID":63153,"ELEMENT_SET_NO":999,"REV_AT_EPOCH":6311,"BSTAR":0.00049393403,"MEAN_MOTION_DOT":8.085e-5,"MEAN_MOTION_DDOT":0}]
